[Satellite]
VERSION=1.1
NAME=COSMOS 482 DESCENT CRAFT
NICKNAME=COSMOS 482 DESCENT CRAFT
TLE1=1 06073U 72023E   19317.80824378  .00018618  52260-5  83892-4 0  9999
TLE2=2 06073  52.0587  77.9485 1388139 236.4126 109.6652 12.99804166473922
STATUS=0
